{
"type": "FeatureCollection",
"name": "centros",
"crs": { "type": "name", "properties": { "name": "urn:ogc:def:crs:OGC:1.3:CRS84" } },
"features": [
{ "type": "Feature", "properties": { "id": 1, "Nombre": "CDO Ñembi Misi", "Descripcio": "Centro de Operaciones" }, "geometry": { "type": "Point", "coordinates": [ -59.757195477996248, -18.383590683147325 ] } },
{ "type": "Feature", "properties": { "id": 2, "Nombre": "CM Tucavaca (Kaaiya – Ñembi Guasu)", "Descripcio": "Centro de Monitoreo" }, "geometry": { "type": "Point", "coordinates": [ -60.810257833315433, -18.516546621239279 ] } }
]
}
